{"type": "FeatureCollection", "features": [ {"type": "Feature", "properties": {"norad_id": 31361, "name": "FENGYUN 1C DEB", "group": "fengyun-1c-debris", "lat": -71.75798851820569, "lon": 127.60036701781281, "alt_km": 865.3020840420986, "timestamp": "2025-12-25T22:42:17.293512+00:00", "meta": {"OBJECT_NAME": "FENGYUN 1C DEB", "OBJECT_ID": "1999-025BRR", "EPOCH": "2025-12-24T04:51:37.905120", "MEAN_MOTION": 14.17751491, "ECCENTRICITY": 0.00458271, "INCLINATION": 98.552, "RA_OF_ASC_NODE": 333.0859, "ARG_OF_PERICENTER": 38.3014, "MEAN_ANOMALY": 322.1402, "EPHEMERIS_TYPE": 0, "CLASSIFICATION_TYPE": "U", "NORAD_CAT_ID": 31361, "ELEMENT_SET_NO": 999, "REV_AT_EPOCH": 96726, "BSTAR": 0.00013339901, "MEAN_MOTION_DOT": 2.33e-06, "MEAN_MOTION_DDOT": 0}, "tle": {"line1": "1 31361U 99025BRR 25358.20252205  .00000233  00000+0  13340-3 0  9991", "line2": "2 31361  98.5520 333.0859 0045827  38.3014 322.1402 14.17751491967265"}}, "geometry": {"type": "Point", "coordinates": [127.60036701781281, -71.75798851820569]}}, {"type": "Feature", "properties": {"norad_id": 31362, "name": "FENGYUN 1C DEB", "group": "fengyun-1c-debris", "lat": -34.132945175251464, "lon": 168.0213180679448, "alt_km": 852.9004442790838, "timestamp": "2025-12-25T22:42:17.293522+00:00", "meta": {"OBJECT_NAME": "FENGYUN 1C DEB", "OBJECT_ID": "1999-025BRS", "EPOCH": "2025-12-24T05:02:10.679712", "MEAN_MOTION": 14.17386468, "ECCENTRICITY": 0.00191836, "INCLINATION": 98.6531, "RA_OF_ASC_NODE": 352.2563, "ARG_OF_PERICENTER": 64.3656, "MEAN_ANOMALY": 295.9498, "EPHEMERIS_TYPE": 0, "CLASSIFICATION_TYPE": "U", "NORAD_CAT_ID": 31362, "ELEMENT_SET_NO": 999, "REV_AT_EPOCH": 96738, "BSTAR": 0.00015457466, "MEAN_MOTION_DOT": 2.71e-06, "MEAN_MOTION_DDOT": 0}, "tle": {"line1": "1 31362U 99025BRS 25358.20984583  .00000271  00000+0  15457-3 0  9996", "line2": "2 31362  98.6531 352.2563 0019183  64.3656 295.9498 14.17386468967384"}}, "geometry": {"type": "Point", "coordinates": [168.0213180679448, -34.132945175251464]}}, {"type": "Feature", "properties": {"norad_id": 31364, "name": "FENGYUN 1C DEB", "group": "fengyun-1c-debris", "lat": 69.04746144027908, "lon": -34.6904420368297, "alt_km": 769.6684034352584, "timestamp": "2025-12-25T22:42:17.293532+00:00", "meta": {"OBJECT_NAME": "FENGYUN 1C DEB", "OBJECT_ID": "1999-025BRU", "EPOCH": "2025-12-24T19:02:22.323552", "MEAN_MOTION": 14.14778627, "ECCENTRICITY": 0.00923728, "INCLINATION": 99.2623, "RA_OF_ASC_NODE": 118.8896, "ARG_OF_PERICENTER": 115.3531, "MEAN_ANOMALY": 245.7242, "EPHEMERIS_TYPE": 0, "CLASSIFICATION_TYPE": "U", "NORAD_CAT_ID": 31364, "ELEMENT_SET_NO": 999, "REV_AT_EPOCH": 95047, "BSTAR": 0.0026410457, "MEAN_MOTION_DOT": 5.261e-05, "MEAN_MOTION_DDOT": 0}, "tle": {"line1": "1 31364U 99025BRU 25358.79331393  .00005261  00000+0  26410-2 0  9991", "line2": "2 31364  99.2623 118.8896 0092372 115.3531 245.7242 14.14778627950471"}}, "geometry": {"type": "Point", "coordinates": [-34.6904420368297, 69.04746144027908]}}, {"type": "Feature", "properties": {"norad_id": 31365, "name": "FENGYUN 1C DEB", "group": "fengyun-1c-debris", "lat": -80.85600665393083, "lon": -166.28623874547253, "alt_km": 756.5911390610481, "timestamp": "2025-12-25T22:42:17.293542+00:00", "meta": {"OBJECT_NAME": "FENGYUN 1C DEB", "OBJECT_ID": "1999-025BRV", "EPOCH": "2025-12-25T16:28:33.747744", "MEAN_MOTION": 14.42008029, "ECCENTRICITY": 0.004282, "INCLINATION": 98.6729, "RA_OF_ASC_NODE": 84.9422, "ARG_OF_PERICENTER": 182.5121, "MEAN_ANOMALY": 177.5859, "EPHEMERIS_TYPE": 0, "CLASSIFICATION_TYPE": "U", "NORAD_CAT_ID": 31365, "ELEMENT_SET_NO": 999, "REV_AT_EPOCH": 96815, "BSTAR": 0.0021434, "MEAN_MOTION_DOT": 7.071e-05, "MEAN_MOTION_DDOT": 0}, "tle": {"line1": "1 31365U 99025BRV 25359.68650171  .00007071  00000+0  21434-2 0  9991", "line2": "2 31365  98.6729  84.9422 0042820 182.5121 177.5859 14.42008029968157"}}, "geometry": {"type": "Point", "coordinates": [-166.28623874547253, -80.85600665393083]}}, {"type": "Feature", "properties": {"norad_id": 31367, "name": "FENGYUN 1C DEB", "group": "fengyun-1c-debris", "lat": 72.91999627518335, "lon": -135.4081675586879, "alt_km": 736.3180438487407, "timestamp": "2025-12-25T22:42:17.293553+00:00", "meta": {"OBJECT_NAME": "FENGYUN 1C DEB", "OBJECT_ID": "1999-025BRX", "EPOCH": "2025-12-25T15:51:47.845152", "MEAN_MOTION": 14.47548808, "ECCENTRICITY": 0.0098682, "INCLINATION": 98.7454, "RA_OF_ASC_NODE": 254.3627, "ARG_OF_PERICENTER": 337.6708, "MEAN_ANOMALY": 51.8549, "EPHEMERIS_TYPE": 0, "CLASSIFICATION_TYPE": "U", "NORAD_CAT_ID": 31367, "ELEMENT_SET_NO": 999, "REV_AT_EPOCH": 98653, "BSTAR": 0.00069845, "MEAN_MOTION_DOT": 2.68e-05, "MEAN_MOTION_DDOT": 0}, "tle": {"line1": "1 31367U 99025BRX 25359.66097043  .00002680  00000+0  69845-3 0  9994", "line2": "2 31367  98.7454 254.3627 0098682 337.6708  51.8549 14.47548808986537"}}, "geometry": {"type": "Point", "coordinates": [-135.4081675586879, 72.91999627518335]}}, {"type": "Feature", "properties": {"norad_id": 31369, "name": "FENGYUN 1C DEB", "group": "fengyun-1c-debris", "lat": -48.84437726907807, "lon": 150.87231468222262, "alt_km": 800.6107001370428, "timestamp": "2025-12-25T22:42:17.293563+00:00", "meta": {"OBJECT_NAME": "FENGYUN 1C DEB", "OBJECT_ID": "1999-025BRZ", "EPOCH": "2025-12-24T17:41:47.256864", "MEAN_MOTION": 14.19424742, "ECCENTRICITY": 0.00542422, "INCLINATION": 98.6201, "RA_OF_ASC_NODE": 339.6902, "ARG_OF_PERICENTER": 264.1691, "MEAN_ANOMALY": 272.8797, "EPHEMERIS_TYPE": 0, "CLASSIFICATION_TYPE": "U", "NORAD_CAT_ID": 31369, "ELEMENT_SET_NO": 999, "REV_AT_EPOCH": 64497, "BSTAR": 0.00025598722, "MEAN_MOTION_DOT": 5.03e-06, "MEAN_MOTION_DDOT": 0}, "tle": {"line1": "1 31369U 99025BRZ 25358.73735251  .00000503  00000+0  25599-3 0  9993", "line2": "2 31369  98.6201 339.6902 0054242 264.1691 272.8797 14.19424742644978"}}, "geometry": {"type": "Point", "coordinates": [150.87231468222262, -48.84437726907807]}}, {"type": "Feature", "properties": {"norad_id": 31370, "name": "FENGYUN 1C DEB", "group": "fengyun-1c-debris", "lat": -79.18297827250655, "lon": 125.8440595649642, "alt_km": 843.6861745169344, "timestamp": "2025-12-25T22:42:17.293573+00:00", "meta": {"OBJECT_NAME": "FENGYUN 1C DEB", "OBJECT_ID": "1999-025BSA", "EPOCH": "2025-12-25T11:14:09.232224", "MEAN_MOTION": 14.09723002, "ECCENTRICITY": 0.0033165, "INCLINATION": 98.7541, "RA_OF_ASC_NODE": 359.129, "ARG_OF_PERICENTER": 260.9395, "MEAN_ANOMALY": 98.8022, "EPHEMERIS_TYPE": 0, "CLASSIFICATION_TYPE": "U", "NORAD_CAT_ID": 31370, "ELEMENT_SET_NO": 999, "REV_AT_EPOCH": 96473, "BSTAR": 0.00029824, "MEAN_MOTION_DOT": 4.83e-06, "MEAN_MOTION_DDOT": 0}, "tle": {"line1": "1 31370U 99025BSA 25359.46816241  .00000483  00000+0  29824-3 0  9997", "line2": "2 31370  98.7541 359.1290 0033165 260.9395  98.8022 14.09723002964737"}}, "geometry": {"type": "Point", "coordinates": [125.8440595649642, -79.18297827250655]}}, {"type": "Feature", "properties": {"norad_id": 31371, "name": "FENGYUN 1C DEB", "group": "fengyun-1c-debris", "lat": -76.54820960336953, "lon": 72.64815386336959, "alt_km": 866.0778068241334, "timestamp": "2025-12-25T22:42:17.293583+00:00", "meta": {"OBJECT_NAME": "FENGYUN 1C DEB", "OBJECT_ID": "1999-025BSB", "EPOCH": "2025-12-25T07:41:54.891744", "MEAN_MOTION": 14.04537424, "ECCENTRICITY": 0.007854, "INCLINATION": 98.7649, "RA_OF_ASC_NODE": 31.8786, "ARG_OF_PERICENTER": 211.4309, "MEAN_ANOMALY": 148.2153, "EPHEMERIS_TYPE": 0, "CLASSIFICATION_TYPE": "U", "NORAD_CAT_ID": 31371, "ELEMENT_SET_NO": 999, "REV_AT_EPOCH": 95923, "BSTAR": 0.00087753, "MEAN_MOTION_DOT": 1.397e-05, "MEAN_MOTION_DDOT": 0}, "tle": {"line1": "1 31371U 99025BSB 25359.32077421  .00001397  00000+0  87753-3 0  9992", "line2": "2 31371  98.7649  31.8786 0078540 211.4309 148.2153 14.04537424959233"}}, "geometry": {"type": "Point", "coordinates": [72.64815386336959, -76.54820960336953]}}, {"type": "Feature", "properties": {"norad_id": 31372, "name": "FENGYUN 1C DEB", "group": "fengyun-1c-debris", "lat": -11.858288589021544, "lon": -6.097896696122813, "alt_km": 791.5089077236607, "timestamp": "2025-12-25T22:42:17.293596+00:00", "meta": {"OBJECT_NAME": "FENGYUN 1C DEB", "OBJECT_ID": "1999-025BSC", "EPOCH": "2025-12-23T10:09:52.225632", "MEAN_MOTION": 14.2661024, "ECCENTRICITY": 0.00339389, "INCLINATION": 99.3749, "RA_OF_ASC_NODE": 349.2148, "ARG_OF_PERICENTER": 44.9631, "MEAN_ANOMALY": 315.4286, "EPHEMERIS_TYPE": 0, "CLASSIFICATION_TYPE": "U", "NORAD_CAT_ID": 31372, "ELEMENT_SET_NO": 999, "REV_AT_EPOCH": 96003, "BSTAR": 0.0015430558, "MEAN_MOTION_DOT": 3.701e-05, "MEAN_MOTION_DDOT": 0}, "tle": {"line1": "1 31372U 99025BSC 25357.42352113  .00003701  00000+0  15431-2 0  9990", "line2": "2 31372  99.3749 349.2148 0033938  44.9631 315.4286 14.26610240960036"}}, "geometry": {"type": "Point", "coordinates": [-6.097896696122813, -11.858288589021544]}}, {"type": "Feature", "properties": {"norad_id": 31376, "name": "FENGYUN 1C DEB", "group": "fengyun-1c-debris", "lat": 55.78327892288303, "lon": 110.2757102018343, "alt_km": 689.5696244562259, "timestamp": "2025-12-25T22:42:17.293606+00:00", "meta": {"OBJECT_NAME": "FENGYUN 1C DEB", "OBJECT_ID": "1999-025BSG", "EPOCH": "2025-12-25T12:17:01.190112", "MEAN_MOTION": 14.61958099, "ECCENTRICITY": 0.0048336, "INCLINATION": 98.8319, "RA_OF_ASC_NODE": 276.595, "ARG_OF_PERICENTER": 228.4282, "MEAN_ANOMALY": 131.2769, "EPHEMERIS_TYPE": 0, "CLASSIFICATION_TYPE": "U", "NORAD_CAT_ID": 31376, "ELEMENT_SET_NO": 999, "REV_AT_EPOCH": 98329, "BSTAR": 0.0020684, "MEAN_MOTION_DOT": 0.00010493, "MEAN_MOTION_DDOT": 0}, "tle": {"line1": "1 31376U 99025BSG 25359.51181933  .00010493  00000+0  20684-2 0  9998", "line2": "2 31376  98.8319 276.5950 0048336 228.4282 131.2769 14.61958099983298"}}, "geometry": {"type": "Point", "coordinates": [110.2757102018343, 55.78327892288303]}}]}